ONEWEB-0593             
1 54659U 22166T   26177.72111191 -.00000097  00000+0 -26604-3 0  9990
2 54659  87.9247 242.0791 0001906  96.0396 264.0955 13.21824875172802
ONEWEB-0594             
1 54660U 22166U   26177.43850498  .00000052  00000+0  95314-4 0  9994
2 54660  87.9245 242.1515 0001989 102.5822 257.5535 13.21828204172783
ONEWEB-0595             
1 54661U 22166V   26177.71774788 -.00000127  00000+0 -34005-3 0  9997
2 54661  87.9258 242.0774 0002224 103.0624 257.0758 13.21824252172795
ONEWEB-0596             
1 54662U 22166W   26177.61681692 -.00000066  00000+0 -19025-3 0  9995
2 54662  87.9249 242.1082 0002131 100.0377 260.0998 13.21827586172780
ONEWEB-0597             
1 54663U 22166X   26177.67401097  .00000047  00000+0  82906-4 0  9997
2 54663  87.9247 242.0999 0002005  94.8065 265.3298 13.21826861172796
ONEWEB-0600             
1 54664U 22166Y   26177.73121012  .00000000  00000+0 -31979-4 0  9995
2 54664  87.9247 242.0798 0001819  98.4366 261.6974 13.21824513172770
ONEWEB-0601             
1 54665U 22166Z   26177.72281138  .00026539  00000+0  64167-1 0  9997
2 54665  87.9248 242.0977 0003887  76.9032 283.2536 13.21689396172962
ONEWEB-0602             
1 54666U 22166AA  26177.68830498 -.00000064  00000+0 -18649-3 0  9995
2 54666  87.9245 242.1104 0001770  98.8277 261.3057 13.21826886172801
ONEWEB-0603             
1 54667U 22166AB  26177.69419978 -.00000039  00000+0 -12477-3 0  9998
2 54667  87.9255 242.0671 0001976  95.9055 264.2304 13.21826844172734
ONEWEB-0604             
1 54668U 22166AC  26177.68240248  .00000028  00000+0  36481-4 0  9998
2 54668  87.9257 242.0852 0002064 100.4378 259.6989 13.21828094172698
ONEWEB-0605             
1 54669U 22166AD  26177.67569713 -.00000032  00000+0 -10924-3 0  9999
2 54669  87.9248 242.0991 0002381  83.7110 276.4295 13.21826822172764
ONEWEB-0606             
1 54670U 22166AE  26177.69754057  .00001999  00000+0  48073-2 0  9996
2 54670  87.9246 242.1069 0002223 101.3023 258.8361 13.21843698172821
ONEWEB-0607             
1 54671U 22166AF  26177.73962147 -.00000053  00000+0 -15892-3 0  9999
2 54671  87.9254 242.0705 0001950  95.4762 264.6594 13.21824266172807
ONEWEB-0608             
1 54672U 22166AG  26177.59492669  .00000096  00000+0  20177-3 0  9998
2 54672  87.9258 242.0963 0002069  83.4700 276.6669 13.21828374172797
ONEWEB-0610             
1 54673U 22166AH  26177.72616333 -.00000028  00000+0 -98411-4 0  9994
2 54673  87.9247 242.0836 0001815  80.4436 279.6903 13.21824401172719
ONEWEB-0611             
1 54674U 22166AJ  26177.71941558 -.00000053  00000+0 -15943-3 0  9990
2 54674  87.9249 242.0807 0002132 101.1927 258.9447 13.21824870172701
ONEWEB-0612             
1 54675U 22166AK  26177.73289515  .00000021  00000+0  19498-4 0  9994
2 54675  87.9259 242.0746 0002033  93.5365 266.6002 13.21825244172692
